#dP2019  9 16  0  0  0.00000000      96 __u+U ITR00 FIT  IAC
## 2071  86400.00000000   900.00000000 58742 0.0000000000000
+  107   C06C07C08C09C10C11C12C13C14C16C19C20C21C22C23C24C25
+        C26C27C28C29C30C32C33C34C35C36C37E01E02E03E04E05E07
+        E08E09E11E12E13E14E15E18E19E21E24E25E26E27E30E31E33
+        E36G01G02G03G04G05G06G07G08G09G10G11G12G13G14G15G16
+        G17G18G19G20G21G22G23G24G25G26G27G28G29G30G31G32R01
+        R02R03R05R07R08R09R11R12R13R14R15R16R17R18R19R20R21
+        R22R23R24R26R27  0  0  0  0  0  0  0  0  0  0  0  0
++         9  9  8  8  9  8  8  8  8  9  8  8  8  8  8  9  9
++         8  8  8  8  8  9  9  9 10  9  9  5  5  5  5  5  6
++         5  5  5  5  5  5  5  6  5  5  5  5  5  5  5  5  5
++         5  3  4  3  4  4  3  4  4  4  4  3  3  4  3  4  3
++         4  3  4  4  4  3  4  3  4  4  3  4  4  4  3  3  6
++         5  5  5  5  5  5  5  5  6  6  6  6  5  5  6  6  5
++         5  6  6  8  8  0  0  0  0  0  0  0  0  0  0  0  0
%c M  cc GPS ccc cccc cccc cccc cccc ccccc ccccc ccccc ccccc
%c cc cc ccc ccc cccc cccc cccc cccc ccccc ccccc ccccc ccccc
%f  0.0000000  0.000000000  0.00000000000  0.000000000000000
%f  0.0000000  0.000000000  0.00000000000  0.000000000000000
%i    0    0    0    0      0      0      0      0         0
%i    0    0    0    0      0      0      0      0         0
/* INFORMATION & ANALYSIS CENTER (IAC)      ULTRA-RAPID DATA
/* S/V CLOCKS ARE ALIGNED TO GNSS TIME                      
/* G:C1WC2W R:C1PC2P E:C1XC5X E:C2IC6I J:C1CC2S             
/* PCV:IGS14_2062 OL/AL:FES2004  NONE     YN ORB:CoN CLK:CoN
*  2019 09 16 10  0  0.00000000
PC06  -7904.827233  24976.288972  33448.237113    410.520893
PC07 -23946.192000  28023.387290 -20707.490547   -133.822168
PC08 -13877.245171  37589.461925 -12510.278427     -4.876667
PC09   5995.935417  32061.018819  27139.362481    -29.120102
PC10 -10343.885659  29084.377091 -28712.197921   -181.310939
PC11 -18152.447377  -5323.471565 -20487.888215    109.909779
PC12 -11851.923012 -25182.739714   2681.790635   -246.334881
PC13  -5241.707066  41666.762683   1411.667993   -893.848486
PC14 -25323.030178  -6847.442577  -9399.926936    506.709367
PC16  -3462.270291  26668.767795  32553.236601   -878.828424
PC19  25605.298738  -6179.400931  -9171.752931    199.305702
PC20  26060.785719   5836.087332   8054.227460    -69.713870
PC21 -11061.684956 -14732.917931 -20953.041823    308.904543
PC22  10201.992701 -14780.850254 -21349.574835   -108.358186
PC23 -12399.066234  24769.393493  -3418.246504   -946.587099
PC24 -15656.410424  -5027.090570  22551.154915   -901.330509
PC25 -19507.351585  14780.247507  13399.132492   -350.219027
PC26  -3230.803790 -20582.614098  18579.671657    388.915271
PC27  11427.431123  25334.939419  -2604.774767    190.175241
PC28  -2846.205375  21154.761639 -17966.572797    184.717179
PC29  15210.032604  -5283.259914  22785.337421    119.181410
PC30  19515.186005  14105.919055  14114.467482    193.285884
PC32  11141.977079  14679.464540  20961.597534   -928.702202
PC33 -25620.802514   6289.239287   9131.025880   -390.157071
PC34 -19506.701143 -13877.551494 -14332.041727 999999.999999
PC35   2246.607367 -21204.947426  17988.439093 999999.999999
PC36  19839.762900 -14214.688702 -13484.752432 999999.999999
PC37   2316.608383  20947.033795 -18261.058668   -486.870697
PE01  25895.900068 -11338.803714  -8753.584028   -691.101444
PE02 -25901.644089  11380.706385   8708.523015     79.496321
PE03 -25317.807363    426.856341  15343.991063   -211.447164
PE04   9824.713501 -14242.776504 -24012.494477   -366.524729
PE05 -26098.565905 -13763.812032  -2401.740485   -448.175675
PE07  11608.310061  19833.045331  18655.706590   -266.881859
PE08  -9526.004130  14258.558317  24130.423200   6291.204171
PE09 -11886.334670 -19644.282030 -18687.109702   6314.643534
PE11  -5644.074138 -28804.080566  -3804.913055   5589.339244
PE12   7307.878336 -24500.845472  14906.270182   6195.720014
PE13   5673.283386  28817.223017   3663.178867    392.929058
PE14  20721.208235  12778.185650   7533.895677   -721.887502
PE15  -6939.356303  24753.055013 -14666.113779    895.203047
PE18 -24388.329992  -2496.509257 -19768.958711 999999.999999
PE19  26140.479528   1198.629812 -13832.591653     -3.948081
PE21  18496.887888   5112.607761 -22527.823041   -555.163106
PE24   -300.234822 -18580.562088  23039.340346   5868.377211
PE25 -18454.536263  -5178.166327  22571.411585   1676.866735
PE26  15040.692304  15949.313614  19881.162062   4101.227961
PE27    208.828506  18611.992727 -23006.082456    386.215946
PE30 -18185.709524  21080.324089 -10052.245211   4542.588517
PE31  18120.341142 -21155.001650  10012.827199   -468.508886
PE33  15512.645720  -6177.863523  24442.011290   -470.194426
PE36 -14990.937282 -15996.430089 -19890.689750    661.420317
PG01  13633.509349 -17915.242000  13633.108628   -130.588971
PG02 -14654.895818  -3487.387601 -21263.948947   -306.188387
PG03  20739.975640 -13433.929666  -9673.517119    -11.569564
PG04  22972.752631  12931.274518   4820.244306     67.102489
PG05 -24949.483784   1366.207559  -9435.498613     -1.481920
PG06  -7676.439295 -18727.585910 -17143.775897    -59.198832
PG07   5701.268618 -25667.272909    670.783972   -107.478257
PG08  18127.715197  -1602.758929  19449.993779     -6.661713
PG09     93.897904 -18322.935437 -19269.606597    -32.598587
PG10   7083.309865  13616.269146  21752.145644    -55.871086
PG11  10991.755722 -15342.472839  18272.592321   -505.577423
PG12 -23661.360675  10060.504080  -6521.307296    203.469429
PG13 -20439.847058  -8978.008424  14325.062135    -44.070046
PG14  18861.443154  18737.914883  -1660.299874    -61.072115
PG15 -17988.249669   4139.160736  18945.898452   -286.609608
PG16  24565.102858   1972.228903 -10646.409467    -74.614466
PG17 -14090.019798 -21495.845790   7275.973202    126.526646
PG18  15195.818595 -10185.643864  18713.759781     86.085586
PG19 -17724.969184 -19756.464568   -314.357931   -266.561105
PG20  -3077.214670  17426.330297  19651.676027    526.872416
PG21   -447.336024  26270.676440   5293.805704   -117.987204
PG22  24097.878557 -10882.364403  -1681.437931   -755.357031
PG23  11666.330190 -10217.787800 -21238.278337   -166.608269
PG24 -14188.871491  15966.895758  15404.583949     -2.239529
PG25 -12515.410490  16110.221234 -17080.655534    -12.383961
PG26  18259.133096   7339.227868 -17938.629181     40.155060
PG27  22024.857598  10341.339461  10890.554633    -57.336207
PG28  -6095.108000 -13997.211670  22334.450148    762.033413
PG29  -3255.755011  16433.733250 -20638.675188     96.424079
PG30  -1806.075652 -24044.694349  10948.144172    -41.836444
PG31   8924.915746  16862.896476 -18292.879855     10.005633
PG32  15302.071827  20646.395976   7025.446047     58.732288
PR01  14806.726801  11302.809287  17416.916832     49.801022
PR02  25095.999009   4476.193527  -1482.190837    388.317590
PR03  18238.258856  -4657.617925 -17201.634977      1.579447
PR05 -16858.114138 -10936.338201 -15691.498147     35.786126
PR07 -17736.048587   4963.938740  17660.708279    -26.721161
PR08  -1002.309612  10991.703839  23045.734224     15.629589
PR09 -17359.929729   6734.082493  17490.042432     90.876544
PR11  -9106.924344  19886.371121 -13147.872349    -79.560600
PR12   4368.242146  11114.005750 -22503.339846     62.065780
PR13  16155.492450  -4805.374796 -19150.956402    -28.487161
PR14  18216.814962 -17248.594409  -4539.917028     43.034304
PR15   9786.807186 -19952.501215  12545.212186    103.978878
PR16  -4800.059946 -11070.347981  22473.311412      4.287467
PR17   7544.255914  -9757.085087  22339.873134    260.642152
PR18  -1574.990920 -22376.992659  12108.463389      7.631414
PR19  -9230.539696 -23347.542700  -4551.883209    -54.037501
PR20 -12310.903231  -9417.711863 -20244.067306   -390.616805
PR21  -7169.985429  10373.911484 -22170.387509    -72.766547
PR22   3147.830275  23546.044275  -9444.142271   -175.705880
PR23  11413.921004  20439.963461  10108.699078    254.209706
PR24  12309.722840   7164.542342  21133.802208   -184.802278
PR26 -12707.659644 -12421.980978 -18306.165174     -4.678852
PR27  13245.289802 -20291.997410   8135.647665    122.316538
EOF
